{
    "links": {
        "self": "http://www.neowsapp.com/rest/v1/neo/3580055?api_key=iIulBulltgU6a56xZRHN4H3l9WmuAYTsLGpBGhQ2"
    },
    "id": "3580055",
    "neo_reference_id": "3580055",
    "name": "(2011 SL173)",
    "designation": "2011 SL173",
    "nasa_jpl_url": "http://ssd.jpl.nasa.gov/sbdb.cgi?sstr=3580055",
    "absolute_magnitude_h": 25.5,
    "estimated_diameter": {
        "kilometers": {
            "estimated_diameter_min": 0.0211132445,
            "estimated_diameter_max": 0.0472106499
        },
        "meters": {
            "estimated_diameter_min": 21.113244479,
            "estimated_diameter_max": 47.2106498806
        },
        "miles": {
            "estimated_diameter_min": 0.0131191578,
            "estimated_diameter_max": 0.0293353287
        },
        "feet": {
            "estimated_diameter_min": 69.2691770164,
            "estimated_diameter_max": 154.8905885541
        }
    },
    "is_potentially_hazardous_asteroid": false,
    "close_approach_data": [
        {
            "close_approach_date": "2011-10-01",
            "close_approach_date_full": "2011-Oct-01 10:43",
            "epoch_date_close_approach": 1317465780000,
            "relative_velocity": {
                "kilometers_per_second": "13.6817483995",
                "kilometers_per_hour": "49254.294238258",
                "miles_per_hour": "30604.7029948776"
            },
            "miss_distance": {
                "astronomical": "0.0582022922",
                "lunar": "22.6406916658",
                "kilometers": "8706938.942237614",
                "miles": "5410240.9824985132"
            },
            "orbiting_body": "Earth"
        },
        {
            "close_approach_date": "2012-03-15",
            "close_approach_date_full": "2012-Mar-15 03:23",
            "epoch_date_close_approach": 1331781780000,
            "relative_velocity": {
                "kilometers_per_second": "13.7600936879",
                "kilometers_per_hour": "49536.3372762726",
                "miles_per_hour": "30779.9535703595"
            },
            "miss_distance": {
                "astronomical": "0.2467490009",
                "lunar": "95.9853613501",
                "kilometers": "36913124.959268083",
                "miles": "22936752.2583542254"
            },
            "orbiting_body": "Earth"
        }
    ],
    "orbital_data": {
        "orbit_id": "4",
        "orbit_determination_date": "2017-04-06 08:52:37",
        "first_observation_date": "2011-09-27",
        "last_observation_date": "2011-09-29",
        "data_arc_in_days": 2,
        "observations_used": 19,
        "orbit_uncertainty": "9",
        "minimum_orbit_intersection": ".0538274",
        "jupiter_tisserand_invariant": "5.320",
        "epoch_osculation": "2455832.5",
        "eccentricity": ".1451248959291023",
        "semi_major_axis": "1.162572346015986",
        "inclination": "25.50125700934285",
        "ascending_node_longitude": "186.846189140046",
        "orbital_period": "457.8554722556239",
        "perihelion_distance": ".9938541552903637",
        "perihelion_argument": "238.0232679689388",
        "aphelion_distance": "1.331290536741608",
        "perihelion_time": "2455890.324088065175",
        "mean_anomaly": "314.5344044903303",
        "mean_motion": ".7862743197683341",
        "equinox": "J2000",
        "orbit_class": {
            "orbit_class_type": "APO",
            "orbit_class_description": "Near-Earth asteroid orbits which cross the Earth’s orbit similar to that of 1862 Apollo",
            "orbit_class_range": "a (semi-major axis) > 1.0 AU; q (perihelion) < 1.017 AU"
        }
    },
    "is_sentry_object": false
}